ELEKTRO-L 2             
1 41105U 15074A   24271.17115323 -.00000129  00000+0  00000+0 0  9998
2 41105   5.0986  78.2057 0003142 164.5136 170.8963  1.00272401 32215
TELEOS-1                
1 41169U 15077D   24270.88665550  .00047739  00000+0  12076-2 0  9996
2 41169  14.9780 124.0516 0005398 273.5852  86.3855 15.37823455486497
DAMPE                   
1 41173U 15078A   24271.52357779  .00003428  00000+0  12869-3 0  9993
2 41173  97.4380 264.7156 0014057 134.6327 225.6061 15.27807253488601
ORBCOMM FM114           
1 41179U 15081A   24270.88780758  .00003018  00000+0  70059-3 0  9998
2 41179  47.0014  89.6190 0002993 226.1887 133.8750 14.57067471466050
ORBCOMM FM110           
1 41182U 15081D   24270.93253116  .00002659  00000+0  62180-3 0  9997
2 41182  47.0007  88.7925 0000923 334.5610  25.5230 14.57058567465933
ORBCOMM FM112           
1 41184U 15081F   24271.52697465  .00003321  00000+0  76722-3 0  9998
2 41184  46.9997 355.0337 0002697 267.6950  92.3626 14.57069549467396
ORBCOMM FM113           
1 41185U 15081G   24270.40683911  .00003364  00000+0  77661-3 0  9996
2 41185  47.0021   0.6015 0002391 275.9874  84.0738 14.57076393467163
ORBCOMM FM108           
1 41187U 15081J   24270.97801229  .00002133  00000+0  50625-3 0  9998
2 41187  47.0045 269.1586 0001673 193.8697 166.2142 14.57061470468397
ORBCOMM FM117           
1 41188U 15081K   24271.08140749  .00002103  00000+0  49962-3 0  9994
2 41188  47.0005 267.5220 0002579 207.1730 152.9020 14.57065058468500
ORBCOMM FM116           
1 41189U 15081L   24271.55124301  .00003398  00000+0  78373-3 0  9998
2 41189  47.0027 355.1430 0003290 276.3221  83.7289 14.57092097467405
CHUBUSAT-2              
1 41338U 16012B   24271.20335369  .00011371  00000+0  67121-3 0  9998
2 41338  31.0010  93.3589 0009898 179.4749 180.5900 15.10257440473026
CHUBUSAT-3              
1 41339U 16012C   24271.52250820  .00010182  00000+0  61368-3 0  9998
2 41339  31.0071  90.5078 0010093 186.8529 173.1972 15.09473539473049
HORYU-4                 
1 41340U 16012D   24271.03872883  .00030213  00000+0  13260-2 0  9999
2 41340  31.0027  29.9151 0007173 296.3262  63.6642 15.20763893473647
ZIYUAN 3-2 (ZY 3-2)     
1 41556U 16033A   24271.50268223  .00016841  00000+0  76017-3 0  9991
2 41556  97.4478 345.8294 0004327 269.7128  90.3612 15.21051084462558
CARTOSAT-2C             
1 41599U 16040A   24271.50898701  .00012381  00000+0  58776-3 0  9993
2 41599  97.4630 329.4367 0013737 163.8279 196.3397 15.19305775458413
LAPAN-A3                
1 41603U 16040E   24271.48347128  .00006709  00000+0  25897-3 0  9993
2 41603  97.1433 280.6488 0013915  97.5831 262.6989 15.26499600458822
BIROS                   
1 41604U 16040F   24271.06719239  .00027326  00000+0  62643-3 0  9992
2 41604  97.1180 296.8488 0009212  50.2197 309.9861 15.42676296459862
M3MSAT                  
1 41605U 16040G   24271.02707207  .00031657  00000+0  72335-3 0  9992
2 41605  97.1161 293.9487 0009960  66.5223 293.7071 15.42737601459679
GAOFEN-3                
1 41727U 16049A   24271.48917354  .00000313  00000+0  10826-3 0  9994
2 41727  98.4080 277.6519 0001071  86.2130 273.9182 14.42208635428166
QSS (MOZI)              
1 41731U 16051A   24271.51018187  .00020007  00000+0  48457-3 0  9995
2 41731  97.3006 183.1466 0007760 199.5634 160.5316 15.41097454452439
PRATHAM                 
1 41783U 16059A   24271.02921087  .00002525  00000+0  47247-3 0  9999
2 41783  97.8352 285.6013 0033623  59.0976 301.3526 14.65328512427456
ALSAT 1N                
1 41789U 16059G   24271.46820599  .00002851  00000+0  51326-3 0  9994
2 41789  97.8248 292.2391 0027812  35.6690 324.6367 14.67075519427881
CAS-2T & KS-1Q          
1 41847U 16066G   24271.20068755  .00003602  00000+0  53149-3 0  9997
2 41847  98.4515 341.7400 0351109 229.8778 127.1158 14.41846629414198
YUNHAI-1 01             
1 41857U 16068A   24271.47106756  .00000863  00000+0  32987-3 0  9996
2 41857  98.5948 276.7760 0008142  67.5497 292.6548 14.33225645411937
RESOURCESAT-2A          
1 41877U 16074A   24271.48089463  .00000491  00000+0  24322-3 0  9992
2 41877  98.6372 342.8322 0002077  80.5318 279.6094 14.21669720405126
TANSAT                  
1 41898U 16081A   24271.49837184  .00001659  00000+0  36400-3 0  9992
2 41898  98.4827 244.3127 0022253  87.8114 272.5632 14.58837841413066
JILIN-1 03              
1 41914U 17002B   24271.54505756  .00015556  00000+0  66722-3 0  9999
2 41914  97.2153 284.2561 0006369 255.9165 104.1364 15.22797863425722
KAIDUN 1                
1 41915U 17002C   24271.52413406  .00033315  00000+0  97682-3 0  9990
2 41915  97.1952 296.5685 0004707 201.3739 158.7309 15.35105609426548
CARTOSAT-2D             
1 41948U 17008A   24270.94826074  .00012522  00000+0  59553-3 0  9998
2 41948  97.4147 328.4496 0005854 269.1630  90.8934 15.19309399422195
ZHUHAI-1 02 (CAS-4B)    
1 42759U 17034B   24271.55945735  .00039187  00000+0  11632-2 0  9993
2 42759  43.0171   5.8006 0013183 318.0748  41.9096 15.34059433403093
ZHUHAI-1 01 (CAS-4A)    
1 42761U 17034D   24271.55124956  .00038605  00000+0  11391-2 0  9996
2 42761  43.0208   4.1053 0012964 328.9009  31.1077 15.34256834403103
CARTOSAT-2E             
1 42767U 17036C   24271.49205708  .00012067  00000+0  57382-3 0  9997
2 42767  97.4271 329.2485 0004701 335.5778  24.5234 15.19326294402841
D-SAT                   
1 42794U 17036AF  24271.47449011  .00010434  00000+0  68565-3 0  9993
2 42794  97.4897 249.7708 0107067 158.8667 201.7033 15.03109910396105
IRIDIUM 113             
1 42803U 17039A   24270.62600379  .00000688  00000+0  23874-3 0  9993
2 42803  86.3989 224.7782 0002009  83.0852 277.0572 14.34222426381092
NORSAT 2                
1 42828U 17042D   24270.75276730  .00015287  00000+0  11051-2 0  9992
2 42828  97.3814  92.0920 0015360  70.6179 289.6707 15.04036979392675
TECHNOSAT               
1 42829U 17042E   24271.50357531  .00008373  00000+0  71201-3 0  9998
2 42829  97.3880  86.9556 0013685  90.5536 269.7255 14.97999984392483
FLYING LAPTOP           
1 42831U 17042G   24271.48310788  .00005091  00000+0  45717-3 0  9998
2 42831  97.3902  86.5892 0013590  92.7739 267.5039 14.96048786392428
WNISAT 1R               
1 42835U 17042L   24271.42642788  .00005559  00000+0  49526-3 0  9995
2 42835  97.3885  86.4095 0013083  90.9162 269.3559 14.96327778392443
LEMUR-2-GREENBERG       
1 42837U 17042N   24271.04482490  .00018489  00000+0  12072-2 0  9998
2 42837  97.3646  95.1656 0015052  47.7950 312.4554 15.07793543392976
LEMUR-2-FURIAUS         
1 42840U 17042R   24271.00640067  .00021185  00000+0  14394-2 0  9990
2 42840  97.3652  94.7219 0013379  94.4771 265.7986 15.06309170392895
CORVUS BC2              
1 42846U 17042X   24271.50090898  .00008104  00000+0  67024-3 0  9997
2 42846  97.3748  91.0117 0008419  78.7791 281.4379 14.99129112392764
CORVUS BC1              
1 42847U 17042Y   24271.45138629  .00008365  00000+0  68858-3 0  9992
2 42847  97.3752  91.3787 0009840  78.5131 281.7197 14.99293918392779
VRSS-2                  
1 42954U 17060A   24271.45513300  .00002649  00000+0  36433-3 0  9997
2 42954  97.7433 323.9006 0017454 353.5911   6.5075 14.79017706375583
MOHAMMED VI-A           
1 43005U 17070A   24271.44658983  .00002611  00000+0  37698-3 0  9995
2 43005  97.9475 341.7887 0001180  77.2038 282.9304 14.77070675371317
FENGYUN 3D              
1 43010U 17072A   24271.51999661  .00000411  00000+0  21707-3 0  9992
2 43010  98.9223 226.8279 0002500  61.0663 299.0763 14.19436395355934
CZ-4C R/B               
1 43012U 17072C   24271.44792840  .00001221  00000+0  25298-3 0  9995
2 43012  98.5928 348.5091 0123629 284.2960  74.4536 14.57600238365141
NOAA 20 (JPSS-1)        
1 43013U 17073A   24271.54361301  .00000317  00000+0  17099-3 0  9997
2 43013  98.7115 207.7677 0000244 330.3708  29.7454 14.19518907355429
MIRATA                  
1 43015U 17073C   24270.93799205  .00045533  00000+0  18309-2 0  9992
2 43015  97.5771 154.8699 0148214 271.6457  86.7804 15.15164103371691
MAKERSAT 0              
1 43016U 17073D   24271.41675897  .00026008  00000+0  13666-2 0  9994
2 43016  97.5548 147.7140 0180299 296.2580  62.0214 15.02650767371239
RADFXSAT (FOX-1B)       
1 43017U 17073E   24270.61404518  .00018866  00000+0  11068-2 0  9993
2 43017  97.5605 142.6087 0200078 314.3733  44.1248 14.96438631370815
EAGLESAT 1              
1 43018U 17073F   24271.26615048  .00041505  00000+0  17056-2 0  9997
2 43018  97.5774 154.9015 0152174 275.8069  82.5832 15.14019661371495
JILIN-1 04              
1 43022U 17074A   24271.52588324  .00017483  00000+0  73655-3 0  9994
2 43022  97.4851   2.7764 0004985 268.7422  91.3243 15.23395955378096
JILIN-1 05              
1 43023U 17074B   24271.49423501  .00012679  00000+0  54574-3 0  9997
2 43023  97.4878   3.2408 0005153 289.7660  70.3020 15.22740110378098
JILIN-1 06              
1 43024U 17074C   24271.49652619  .00012135  00000+0  56388-3 0  9994
2 43024  97.4870   1.5924 0007807 298.5324  61.5125 15.20110988377996
IRIDIUM 116             
1 43072U 17083C   24271.15878256  .00000575  00000+0  19822-3 0  9994
2 43072  86.3983 224.4268 0002320  88.3499 271.7963 14.34219848354158
IRIDIUM 130             
1 43073U 17083D   24270.84799564  .00000590  00000+0  20376-3 0  9997
2 43073  86.3991 224.7705 0002310  90.9057 269.2403 14.34219245354056
LKW-2                   
1 43080U 17084A   24271.50308280  .00015351  00000+0  65181-3 0  9995
2 43080  97.2126 328.1428 0002576 202.8334 157.2789 15.23159141376090
SUPERVIEW-1 03          
1 43099U 18002A   24271.48709446  .00047240  00000+0  10682-2 0  9999
2 43099  97.3676 352.3016 0002538  83.9613 276.1924 15.43013932372344
SUPERVIEW-1 04          
1 43100U 18002B   24271.50341824  .00057137  00000+0  12065-2 0  9990
2 43100  97.3694 353.1937 0001512 167.1277 193.0010 15.45002149372387
